[{"OBJECT_NAME":"ATLAS CENTAUR 2","OBJECT_ID":"1963-047A","EPOCH":"2026-04-07T21:11:51.631872","MEAN_MOTION":14.12210239,"ECCENTRICITY":0.054688,"INCLINATION":30.3569,"RA_OF_ASC_NODE":32.4785,"ARG_OF_PERICENTER":337.5839,"MEAN_ANOMALY":20.1691,"EPHEMERIS_TYPE":0,"CLASSIFICATION_TYPE":"U","NORAD_CAT_ID":694,"ELEMENT_SET_NO":999,"REV_AT_EPOCH":13575,"BSTAR":0.00037008,"MEAN_MOTION_DOT":3.116e-5,"MEAN_MOTION_DDOT":0},{"OBJECT_NAME":"THOR AGENA D R/B","OBJECT_ID":"1964-002A","EPOCH":"2026-04-07T11:28:21.648576","MEAN_MOTION":14.34036295,"ECCENTRICITY":0.00330705,"INCLINATION":99.1206,"RA_OF_ASC_NODE":112.3835,"ARG_OF_PERICENTER":172.9645,"MEAN_ANOMALY":187.2008,"EPHEMERIS_TYPE":0,"CLASSIFICATION_TYPE":"U","NORAD_CAT_ID":733,"ELEMENT_SET_NO":999,"REV_AT_EPOCH":24242,"BSTAR":9.4244397e-5,"MEAN_MOTION_DOT":2.16e-6,"MEAN_MOTION_DDOT":0},{"OBJECT_NAME":"SL-3 R/B","OBJECT_ID":"1964-053B","EPOCH":"2026-04-07T20:16:16.749984","MEAN_MOTION":14.61390352,"ECCENTRICITY":0.008073,"INCLINATION":65.0762,"RA_OF_ASC_NODE":245.7561,"ARG_OF_PERICENTER":283.0657,"MEAN_ANOMALY":76.1441,"EPHEMERIS_TYPE":0,"CLASSIFICATION_TYPE":"U","NORAD_CAT_ID":877,"ELEMENT_SET_NO":999,"REV_AT_EPOCH":27105,"BSTAR":7.6696e-5,"MEAN_MOTION_DOT":2.72e-6,"MEAN_MOTION_DDOT":0},{"OBJECT_NAME":"SL-8 R/B","OBJECT_ID":"1967-045B","EPOCH":"2026-04-07T20:20:04.385472","MEAN_MOTION":14.45645721,"ECCENTRICITY":0.0065118,"INCLINATION":74.0098,"RA_OF_ASC_NODE":293.6344,"ARG_OF_PERICENTER":293.563,"MEAN_ANOMALY":65.8696,"EPHEMERIS_TYPE":0,"CLASSIFICATION_TYPE":"U","NORAD_CAT_ID":2802,"ELEMENT_SET_NO":999,"REV_AT_EPOCH":9323,"BSTAR":8.5388e-5,"MEAN_MOTION_DOT":2.81e-6,"MEAN_MOTION_DDOT":0},{"OBJECT_NAME":"SL-8 R/B","OBJECT_ID":"1968-040B","EPOCH":"2026-04-07T20:33:57.987360","MEAN_MOTION":15.0347862,"ECCENTRICITY":0.002324,"INCLINATION":74.0307,"RA_OF_ASC_NODE":254.0811,"ARG_OF_PERICENTER":65.6979,"MEAN_ANOMALY":294.6633,"EPHEMERIS_TYPE":0,"CLASSIFICATION_TYPE":"U","NORAD_CAT_ID":3230,"ELEMENT_SET_NO":999,"REV_AT_EPOCH":9439,"BSTAR":0.00025346,"MEAN_MOTION_DOT":3.433e-5,"MEAN_MOTION_DDOT":0},{"OBJECT_NAME":"OAO 2","OBJECT_ID":"1968-110A","EPOCH":"2026-04-07T09:54:22.882176","MEAN_MOTION":14.4732491,"ECCENTRICITY":0.00050192,"INCLINATION":34.9924,"RA_OF_ASC_NODE":104.8492,"ARG_OF_PERICENTER":65.9299,"MEAN_ANOMALY":294.1917,"EPHEMERIS_TYPE":0,"CLASSIFICATION_TYPE":"U","NORAD_CAT_ID":3597,"ELEMENT_SET_NO":999,"REV_AT_EPOCH":2326,"BSTAR":7.1036885e-5,"MEAN_MOTION_DOT":2.45e-6,"MEAN_MOTION_DDOT":0},{"OBJECT_NAME":"ISIS 1","OBJECT_ID":"1969-009A","EPOCH":"2026-04-07T09:26:43.239264","MEAN_MOTION":11.30421859,"ECCENTRICITY":0.17076935,"INCLINATION":88.4486,"RA_OF_ASC_NODE":152.1737,"ARG_OF_PERICENTER":31.2559,"MEAN_ANOMALY":337.9529,"EPHEMERIS_TYPE":0,"CLASSIFICATION_TYPE":"U","NORAD_CAT_ID":3669,"ELEMENT_SET_NO":999,"REV_AT_EPOCH":35177,"BSTAR":8.1081066e-5,"MEAN_MOTION_DOT":1.29e-6,"MEAN_MOTION_DDOT":0},{"OBJECT_NAME":"SERT 2","OBJECT_ID":"1970-009A","EPOCH":"2026-04-07T20:38:04.376832","MEAN_MOTION":13.58733314,"ECCENTRICITY":0.0005775,"INCLINATION":99.2795,"RA_OF_ASC_NODE":39.3633,"ARG_OF_PERICENTER":89.7569,"MEAN_ANOMALY":337.234,"EPHEMERIS_TYPE":0,"CLASSIFICATION_TYPE":"U","NORAD_CAT_ID":4327,"ELEMENT_SET_NO":999,"REV_AT_EPOCH":78385,"BSTAR":0.00012932,"MEAN_MOTION_DOT":5.3e-7,"MEAN_MOTION_DDOT":0},{"OBJECT_NAME":"SL-3 R/B","OBJECT_ID":"1971-028B","EPOCH":"2026-04-07T20:38:14.102880","MEAN_MOTION":15.63922679,"ECCENTRICITY":0.0015808,"INCLINATION":81.238,"RA_OF_ASC_NODE":15.9351,"ARG_OF_PERICENTER":169.5099,"MEAN_ANOMALY":190.6489,"EPHEMERIS_TYPE":0,"CLASSIFICATION_TYPE":"U","NORAD_CAT_ID":5118,"ELEMENT_SET_NO":999,"REV_AT_EPOCH":99322,"BSTAR":0.00043208,"MEAN_MOTION_DOT":0.00041021,"MEAN_MOTION_DDOT":0},{"OBJECT_NAME":"SL-8 R/B","OBJECT_ID":"1971-119B","EPOCH":"2026-04-07T10:57:17.858016","MEAN_MOTION":14.3840002,"ECCENTRICITY":0.05457942,"INCLINATION":73.8842,"RA_OF_ASC_NODE":121.9261,"ARG_OF_PERICENTER":82.4586,"MEAN_ANOMALY":283.8197,"EPHEMERIS_TYPE":0,"CLASSIFICATION_TYPE":"U","NORAD_CAT_ID":5730,"ELEMENT_SET_NO":999,"REV_AT_EPOCH":65962,"BSTAR":0.00038834773,"MEAN_MOTION_DOT":7.423e-5,"MEAN_MOTION_DDOT":0},{"OBJECT_NAME":"OAO 3 (COPERNICUS)","OBJECT_ID":"1972-065A","EPOCH":"2026-04-07T19:41:05.102016","MEAN_MOTION":14.60022253,"ECCENTRICITY":0.0006279,"INCLINATION":35.0045,"RA_OF_ASC_NODE":131.3416,"ARG_OF_PERICENTER":34.8132,"MEAN_ANOMALY":131.702,"EPHEMERIS_TYPE":0,"CLASSIFICATION_TYPE":"U","NORAD_CAT_ID":6153,"ELEMENT_SET_NO":999,"REV_AT_EPOCH":85045,"BSTAR":7.0321e-5,"MEAN_MOTION_DOT":3.22e-6,"MEAN_MOTION_DDOT":0},{"OBJECT_NAME":"ATLAS CENTAUR R/B","OBJECT_ID":"1972-065B","EPOCH":"2026-04-07T19:31:42.365856","MEAN_MOTION":14.77775263,"ECCENTRICITY":0.0034139,"INCLINATION":35.0007,"RA_OF_ASC_NODE":135.0625,"ARG_OF_PERICENTER":255.6541,"MEAN_ANOMALY":104.0368,"EPHEMERIS_TYPE":0,"CLASSIFICATION_TYPE":"U","NORAD_CAT_ID":6155,"ELEMENT_SET_NO":999,"REV_AT_EPOCH":84557,"BSTAR":0.00017994,"MEAN_MOTION_DOT":1.302e-5,"MEAN_MOTION_DDOT":0},{"OBJECT_NAME":"SL-8 R/B","OBJECT_ID":"1975-112B","EPOCH":"2026-04-07T18:53:47.346720","MEAN_MOTION":14.38221294,"ECCENTRICITY":0.001479,"INCLINATION":74.0615,"RA_OF_ASC_NODE":325.389,"ARG_OF_PERICENTER":46.9228,"MEAN_ANOMALY":313.3162,"EPHEMERIS_TYPE":0,"CLASSIFICATION_TYPE":"U","NORAD_CAT_ID":8459,"ELEMENT_SET_NO":999,"REV_AT_EPOCH":63605,"BSTAR":8.4592e-5,"MEAN_MOTION_DOT":2.31e-6,"MEAN_MOTION_DDOT":0},{"OBJECT_NAME":"SL-3 R/B","OBJECT_ID":"1977-057B","EPOCH":"2026-04-07T18:46:17.598432","MEAN_MOTION":15.46375724,"ECCENTRICITY":0.0007456,"INCLINATION":97.5811,"RA_OF_ASC_NODE":271.0084,"ARG_OF_PERICENTER":168.8445,"MEAN_ANOMALY":191.2971,"EPHEMERIS_TYPE":0,"CLASSIFICATION_TYPE":"U","NORAD_CAT_ID":10114,"ELEMENT_SET_NO":999,"REV_AT_EPOCH":67282,"BSTAR":0.00025555,"MEAN_MOTION_DOT":0.00012548,"MEAN_MOTION_DDOT":0}]
