ATLAS CENTAUR 2         
1 00694U 63047A   26097.88323648  .00003116  00000+0  37008-3 0  9996
2 00694  30.3569  32.4785 0546880 337.5839  20.1691 14.12210239135750
THOR AGENA D R/B        
1 00733U 64002A   26097.47802834  .00000216  00000+0  94244-4 0  9990
2 00733  99.1206 112.3835 0033070 172.9645 187.2008 14.34036295242429
SL-3 R/B                
1 00877U 64053B   26097.84463831  .00000272  00000+0  76696-4 0  9999
2 00877  65.0762 245.7561 0080730 283.0657  76.1441 14.61390352271051
SL-8 R/B                
1 02802U 67045B   26097.84727298  .00000281  00000+0  85388-4 0  9991
2 02802  74.0098 293.6344 0065118 293.5630  65.8696 14.45645721 93238
SL-8 R/B                
1 03230U 68040B   26097.85692115  .00003433  00000+0  25346-3 0  9992
2 03230  74.0307 254.0811 0023240  65.6979 294.6633 15.03478620 94399
OAO 2                   
1 03597U 68110A   26097.41276484  .00000245  00000+0  71037-4 0  9992
2 03597  34.9924 104.8492 0005019  65.9299 294.1917 14.47324910 23261
ISIS 1                  
1 03669U 69009A   26097.39355601  .00000129  00000+0  81081-4 0  9997
2 03669  88.4486 152.1737 1707693  31.2559 337.9529 11.30421859351773
SERT 2                  
1 04327U 70009A   26097.85977288  .00000053  00000+0  12932-3 0  9997
2 04327  99.2795  39.3633 0005775  89.7569 337.2340 13.58733314783855
SL-3 R/B                
1 05118U 71028B   26097.85988545  .00041021  00000+0  43208-3 0  9996
2 05118  81.2380  15.9351 0015808 169.5099 190.6489 15.63922679993226
SL-8 R/B                
1 05730U 71119B   26097.45645669  .00007423  00000+0  38835-3 0  9998
2 05730  73.8842 121.9261 0545794  82.4586 283.8197 14.38400020659626
OAO 3 (COPERNICUS)      
1 06153U 72065A   26097.82019794  .00000322  00000+0  70321-4 0  9992
2 06153  35.0045 131.3416 0006279  34.8132 131.7020 14.60022253850459
ATLAS CENTAUR R/B       
1 06155U 72065B   26097.81368479  .00001302  00000+0  17994-3 0  9995
2 06155  35.0007 135.0625 0034139 255.6541 104.0368 14.77775263845574
SL-8 R/B                
1 08459U 75112B   26097.78735355  .00000231  00000+0  84592-4 0  9996
2 08459  74.0615 325.3890 0014790  46.9228 313.3162 14.38221294636058
SL-3 R/B                
1 10114U 77057B   26097.78214813  .00012548  00000+0  25555-3 0  9995
2 10114  97.5811 271.0084 0007456 168.8445 191.2971 15.46375724672829
